[{"OBJECT_NAME":"GEESAT-2 01","OBJECT_ID":"2024-023A","EPOCH":"2026-03-09T23:03:28.689408","MEAN_MOTION":14.8287513,"ECCENTRICITY":0.00052371,"INCLINATION":49.9934,"RA_OF_ASC_NODE":93.5493,"ARG_OF_PERICENTER":4.3324,"MEAN_ANOMALY":355.7659,"EPHEMERIS_TYPE":0,"CLASSIFICATION_TYPE":"U","NORAD_CAT_ID":58905,"ELEMENT_SET_NO":999,"REV_AT_EPOCH":11418,"BSTAR":0.00033261995,"MEAN_MOTION_DOT":2.499e-5,"MEAN_MOTION_DDOT":0},{"OBJECT_NAME":"RESURS O1","OBJECT_ID":"1994-074A","EPOCH":"2026-03-09T14:58:22.947744","MEAN_MOTION":14.84942467,"ECCENTRICITY":0.0002035,"INCLINATION":97.6716,"RA_OF_ASC_NODE":90.8465,"ARG_OF_PERICENTER":78.6893,"MEAN_ANOMALY":281.4551,"EPHEMERIS_TYPE":0,"CLASSIFICATION_TYPE":"U","NORAD_CAT_ID":23342,"ELEMENT_SET_NO":999,"REV_AT_EPOCH":68915,"BSTAR":0.00012801,"MEAN_MOTION_DOT":1.039e-5,"MEAN_MOTION_DDOT":0}]
